[{"OBJECT_NAME":"ONEWEB-0050","OBJECT_ID":"2020-020AF","EPOCH":"2026-03-09T21:25:12.459648","MEAN_MOTION":14.90004194,"ECCENTRICITY":0.00029804,"INCLINATION":88.9205,"RA_OF_ASC_NODE":246.7269,"ARG_OF_PERICENTER":19.3816,"MEAN_ANOMALY":340.7526,"EPHEMERIS_TYPE":0,"CLASSIFICATION_TYPE":"U","NORAD_CAT_ID":45453,"ELEMENT_SET_NO":999,"REV_AT_EPOCH":32559,"BSTAR":0.00024442233,"MEAN_MOTION_DOT":2.377e-5,"MEAN_MOTION_DDOT":0},{"OBJECT_NAME":"ICEYE-X63","OBJECT_ID":"2026-004K","EPOCH":"2026-03-09T23:23:40.922880","MEAN_MOTION":14.88075839,"ECCENTRICITY":0.00058015,"INCLINATION":97.8005,"RA_OF_ASC_NODE":69.1882,"ARG_OF_PERICENTER":95.6697,"MEAN_ANOMALY":264.5181,"EPHEMERIS_TYPE":0,"CLASSIFICATION_TYPE":"U","NORAD_CAT_ID":67372,"ELEMENT_SET_NO":999,"REV_AT_EPOCH":854,"BSTAR":0.00030090625,"MEAN_MOTION_DOT":2.713e-5,"MEAN_MOTION_DDOT":0}]
